ZACUBE-1 (TSHEPISOSAT)  
1 39417U 13066B   26093.87178787  .00009224  00000+0  71955-3 0  9999
2 39417  97.8146  55.8184 0044929 138.2329 222.2338 15.00579357669586
WNISAT-1                
1 39423U 13066H   26094.16256692  .00002270  00000+0  41855-3 0  9991
2 39423  97.7092 248.6195 0164741 105.0125 256.9374 14.57964134655948
TRITON-1                
1 39427U 13066M   26094.27324184  .00004542  00000+0  54705-3 0  9991
2 39427  97.8287   5.7734 0091883 114.7180 246.3631 14.81348080663147
GOMX-1                  
1 39430U 13066Q   26094.29688122  .00002368  00000+0  36251-3 0  9992
2 39430  97.6537 299.4043 0128152 315.3293  43.7644 14.69201113659066
CUBEBUG-2 (LO-74)       
1 39440U 13066AA  26094.29759255  .00007490  00000+0  69927-3 0  9996
2 39440  97.8855  43.0224 0056556 272.6349  86.8397 14.93261828665966
NEE-02 KRYSAOR          
1 39441U 13066AB  26093.75932868  .00005266  00000+0  58107-3 0  9997
2 39441  97.8853  33.5424 0065393 314.8360  44.7552 14.86341961665147
FUNCUBE-1 (AO-73)       
1 39444U 13066AE  26094.18528427  .00016448  00000+0  10412-2 0  9990
2 39444  97.8232  64.1714 0039071  95.2943 265.2744 15.08416857668502
UWE-3                   
1 39446U 13066AG  26093.80688810  .00007966  00000+0  69038-3 0  9997
2 39446  97.8634  49.4472 0048895 206.0500 153.8259 14.96445183666457
BRITE-CA1 (TORONTO)     
1 40020U 14033L   26094.24738424  .00002576  00000+0  39331-3 0  9993
2 40020  97.9616 224.5943 0079506 152.8274 207.7128 14.72552082631330
DUCHIFAT-1              
1 40021U 14033M   26094.17646504  .00103811  00000+0  16253-2 0  9994
2 40021  98.0575 143.6688 0003162 348.3303  11.7874 15.53368895644224
NANOSATC-BR1            
1 40024U 14033Q   26094.05395186  .00032835  00000+0  11589-2 0  9995
2 40024  98.0799 119.9862 0005366  89.9225 270.2628 15.29159913642649
QB50P1                  
1 40025U 14033R   26093.58092979  .00015793  00000+0  79934-3 0  9990
2 40025  98.0999  99.5565 0010578 116.9605 243.2708 15.17064692641711
QB50P2                  
1 40032U 14033Y   26093.91193701  .00016029  00000+0  88055-3 0  9997
2 40032  98.0752  86.2331 0009344  73.3491 286.8764 15.14169915641422
PERSEUS-M2              
1 40037U 14033AD  26094.25782410  .00004529  00000+0  41620-3 0  9990
2 40037  97.9902  43.3368 0011878 178.3898 181.7363 14.95278614639732
PERSEUS-M1              
1 40039U 14033AF  26093.76792249  .00003783  00000+0  34766-3 0  9992
2 40039  97.9585  36.7207 0011608 177.8720 182.2552 14.95376143639516
POLYITAN-1              
1 40042U 14033AJ  26093.59045682  .00033419  00000+0  11238-2 0  9996
2 40042  98.1014 112.9263 0008800  59.7421 300.4688 15.30706629642171
