[{"OBJECT_NAME":"ZACUBE-1 (TSHEPISOSAT)","OBJECT_ID":"2013-066B","EPOCH":"2026-04-03T20:55:22.471968","MEAN_MOTION":15.00579357,"ECCENTRICITY":0.0044929,"INCLINATION":97.8146,"RA_OF_ASC_NODE":55.8184,"ARG_OF_PERICENTER":138.2329,"MEAN_ANOMALY":222.2338,"EPHEMERIS_TYPE":0,"CLASSIFICATION_TYPE":"U","NORAD_CAT_ID":39417,"ELEMENT_SET_NO":999,"REV_AT_EPOCH":66958,"BSTAR":0.00071954723,"MEAN_MOTION_DOT":9.224e-5,"MEAN_MOTION_DDOT":0},{"OBJECT_NAME":"WNISAT-1","OBJECT_ID":"2013-066H","EPOCH":"2026-04-04T03:54:05.781888","MEAN_MOTION":14.57964134,"ECCENTRICITY":0.01647415,"INCLINATION":97.7092,"RA_OF_ASC_NODE":248.6195,"ARG_OF_PERICENTER":105.0125,"MEAN_ANOMALY":256.9374,"EPHEMERIS_TYPE":0,"CLASSIFICATION_TYPE":"U","NORAD_CAT_ID":39423,"ELEMENT_SET_NO":999,"REV_AT_EPOCH":65594,"BSTAR":0.00041854706,"MEAN_MOTION_DOT":2.27e-5,"MEAN_MOTION_DDOT":0},{"OBJECT_NAME":"TRITON-1","OBJECT_ID":"2013-066M","EPOCH":"2026-04-04T06:33:28.094976","MEAN_MOTION":14.8134808,"ECCENTRICITY":0.00918832,"INCLINATION":97.8287,"RA_OF_ASC_NODE":5.7734,"ARG_OF_PERICENTER":114.718,"MEAN_ANOMALY":246.3631,"EPHEMERIS_TYPE":0,"CLASSIFICATION_TYPE":"U","NORAD_CAT_ID":39427,"ELEMENT_SET_NO":999,"REV_AT_EPOCH":66314,"BSTAR":0.00054704588,"MEAN_MOTION_DOT":4.542e-5,"MEAN_MOTION_DDOT":0},{"OBJECT_NAME":"GOMX-1","OBJECT_ID":"2013-066Q","EPOCH":"2026-04-04T07:07:30.537408","MEAN_MOTION":14.69201113,"ECCENTRICITY":0.01281529,"INCLINATION":97.6537,"RA_OF_ASC_NODE":299.4043,"ARG_OF_PERICENTER":315.3293,"MEAN_ANOMALY":43.7644,"EPHEMERIS_TYPE":0,"CLASSIFICATION_TYPE":"U","NORAD_CAT_ID":39430,"ELEMENT_SET_NO":999,"REV_AT_EPOCH":65906,"BSTAR":0.00036250829,"MEAN_MOTION_DOT":2.368e-5,"MEAN_MOTION_DDOT":0},{"OBJECT_NAME":"CUBEBUG-2 (LO-74)","OBJECT_ID":"2013-066AA","EPOCH":"2026-04-04T07:08:31.996320","MEAN_MOTION":14.93261828,"ECCENTRICITY":0.00565562,"INCLINATION":97.8855,"RA_OF_ASC_NODE":43.0224,"ARG_OF_PERICENTER":272.6349,"MEAN_ANOMALY":86.8397,"EPHEMERIS_TYPE":0,"CLASSIFICATION_TYPE":"U","NORAD_CAT_ID":39440,"ELEMENT_SET_NO":999,"REV_AT_EPOCH":66596,"BSTAR":0.00069926646,"MEAN_MOTION_DOT":7.49e-5,"MEAN_MOTION_DDOT":0},{"OBJECT_NAME":"NEE-02 KRYSAOR","OBJECT_ID":"2013-066AB","EPOCH":"2026-04-03T18:13:25.997952","MEAN_MOTION":14.86341961,"ECCENTRICITY":0.0065393,"INCLINATION":97.8853,"RA_OF_ASC_NODE":33.5424,"ARG_OF_PERICENTER":314.836,"MEAN_ANOMALY":44.7552,"EPHEMERIS_TYPE":0,"CLASSIFICATION_TYPE":"U","NORAD_CAT_ID":39441,"ELEMENT_SET_NO":999,"REV_AT_EPOCH":66514,"BSTAR":0.00058106717,"MEAN_MOTION_DOT":5.266e-5,"MEAN_MOTION_DDOT":0},{"OBJECT_NAME":"FUNCUBE-1 (AO-73)","OBJECT_ID":"2013-066AE","EPOCH":"2026-04-04T04:26:48.560928","MEAN_MOTION":15.08416857,"ECCENTRICITY":0.00390719,"INCLINATION":97.8232,"RA_OF_ASC_NODE":64.1714,"ARG_OF_PERICENTER":95.2943,"MEAN_ANOMALY":265.2744,"EPHEMERIS_TYPE":0,"CLASSIFICATION_TYPE":"U","NORAD_CAT_ID":39444,"ELEMENT_SET_NO":999,"REV_AT_EPOCH":66850,"BSTAR":0.0010412107,"MEAN_MOTION_DOT":0.00016448,"MEAN_MOTION_DDOT":0},{"OBJECT_NAME":"UWE-3","OBJECT_ID":"2013-066AG","EPOCH":"2026-04-03T19:21:55.131840","MEAN_MOTION":14.96445183,"ECCENTRICITY":0.00488951,"INCLINATION":97.8634,"RA_OF_ASC_NODE":49.4472,"ARG_OF_PERICENTER":206.05,"MEAN_ANOMALY":153.8259,"EPHEMERIS_TYPE":0,"CLASSIFICATION_TYPE":"U","NORAD_CAT_ID":39446,"ELEMENT_SET_NO":999,"REV_AT_EPOCH":66645,"BSTAR":0.00069038382,"MEAN_MOTION_DOT":7.966e-5,"MEAN_MOTION_DDOT":0},{"OBJECT_NAME":"BRITE-CA1 (TORONTO)","OBJECT_ID":"2014-033L","EPOCH":"2026-04-04T05:56:13.998336","MEAN_MOTION":14.72552082,"ECCENTRICITY":0.00795063,"INCLINATION":97.9616,"RA_OF_ASC_NODE":224.5943,"ARG_OF_PERICENTER":152.8274,"MEAN_ANOMALY":207.7128,"EPHEMERIS_TYPE":0,"CLASSIFICATION_TYPE":"U","NORAD_CAT_ID":40020,"ELEMENT_SET_NO":999,"REV_AT_EPOCH":63133,"BSTAR":0.00039331353,"MEAN_MOTION_DOT":2.576e-5,"MEAN_MOTION_DDOT":0},{"OBJECT_NAME":"DUCHIFAT-1","OBJECT_ID":"2014-033M","EPOCH":"2026-04-04T04:14:06.579456","MEAN_MOTION":15.53368895,"ECCENTRICITY":0.00031621,"INCLINATION":98.0575,"RA_OF_ASC_NODE":143.6688,"ARG_OF_PERICENTER":348.3303,"MEAN_ANOMALY":11.7874,"EPHEMERIS_TYPE":0,"CLASSIFICATION_TYPE":"U","NORAD_CAT_ID":40021,"ELEMENT_SET_NO":999,"REV_AT_EPOCH":64422,"BSTAR":0.0016252612,"MEAN_MOTION_DOT":0.00103811,"MEAN_MOTION_DDOT":0},{"OBJECT_NAME":"NANOSATC-BR1","OBJECT_ID":"2014-033Q","EPOCH":"2026-04-04T01:17:41.440704","MEAN_MOTION":15.29159913,"ECCENTRICITY":0.00053668,"INCLINATION":98.0799,"RA_OF_ASC_NODE":119.9862,"ARG_OF_PERICENTER":89.9225,"MEAN_ANOMALY":270.2628,"EPHEMERIS_TYPE":0,"CLASSIFICATION_TYPE":"U","NORAD_CAT_ID":40024,"ELEMENT_SET_NO":999,"REV_AT_EPOCH":64264,"BSTAR":0.0011588675,"MEAN_MOTION_DOT":0.00032835,"MEAN_MOTION_DDOT":0},{"OBJECT_NAME":"QB50P1","OBJECT_ID":"2014-033R","EPOCH":"2026-04-03T13:56:32.333856","MEAN_MOTION":15.17064692,"ECCENTRICITY":0.0010578,"INCLINATION":98.0999,"RA_OF_ASC_NODE":99.5565,"ARG_OF_PERICENTER":116.9605,"MEAN_ANOMALY":243.2708,"EPHEMERIS_TYPE":0,"CLASSIFICATION_TYPE":"U","NORAD_CAT_ID":40025,"ELEMENT_SET_NO":999,"REV_AT_EPOCH":64171,"BSTAR":0.00079934,"MEAN_MOTION_DOT":0.00015793,"MEAN_MOTION_DDOT":0},{"OBJECT_NAME":"QB50P2","OBJECT_ID":"2014-033Y","EPOCH":"2026-04-03T21:53:11.357664","MEAN_MOTION":15.14169915,"ECCENTRICITY":0.00093449,"INCLINATION":98.0752,"RA_OF_ASC_NODE":86.2331,"ARG_OF_PERICENTER":73.3491,"MEAN_ANOMALY":286.8764,"EPHEMERIS_TYPE":0,"CLASSIFICATION_TYPE":"U","NORAD_CAT_ID":40032,"ELEMENT_SET_NO":999,"REV_AT_EPOCH":64142,"BSTAR":0.00088054526,"MEAN_MOTION_DOT":0.00016029,"MEAN_MOTION_DDOT":0},{"OBJECT_NAME":"PERSEUS-M2","OBJECT_ID":"2014-033AD","EPOCH":"2026-04-04T06:11:16.002240","MEAN_MOTION":14.95278614,"ECCENTRICITY":0.00118782,"INCLINATION":97.9902,"RA_OF_ASC_NODE":43.3368,"ARG_OF_PERICENTER":178.3898,"MEAN_ANOMALY":181.7363,"EPHEMERIS_TYPE":0,"CLASSIFICATION_TYPE":"U","NORAD_CAT_ID":40037,"ELEMENT_SET_NO":999,"REV_AT_EPOCH":63973,"BSTAR":0.00041620329,"MEAN_MOTION_DOT":4.529e-5,"MEAN_MOTION_DDOT":0},{"OBJECT_NAME":"PERSEUS-M1","OBJECT_ID":"2014-033AF","EPOCH":"2026-04-03T18:25:48.503136","MEAN_MOTION":14.95376143,"ECCENTRICITY":0.00116087,"INCLINATION":97.9585,"RA_OF_ASC_NODE":36.7207,"ARG_OF_PERICENTER":177.872,"MEAN_ANOMALY":182.2552,"EPHEMERIS_TYPE":0,"CLASSIFICATION_TYPE":"U","NORAD_CAT_ID":40039,"ELEMENT_SET_NO":999,"REV_AT_EPOCH":63951,"BSTAR":0.00034766023,"MEAN_MOTION_DOT":3.783e-5,"MEAN_MOTION_DDOT":0},{"OBJECT_NAME":"POLYITAN-1","OBJECT_ID":"2014-033AJ","EPOCH":"2026-04-03T14:10:15.469248","MEAN_MOTION":15.30706629,"ECCENTRICITY":0.00088,"INCLINATION":98.1014,"RA_OF_ASC_NODE":112.9263,"ARG_OF_PERICENTER":59.7421,"MEAN_ANOMALY":300.4688,"EPHEMERIS_TYPE":0,"CLASSIFICATION_TYPE":"U","NORAD_CAT_ID":40042,"ELEMENT_SET_NO":999,"REV_AT_EPOCH":64217,"BSTAR":0.0011238,"MEAN_MOTION_DOT":0.00033419,"MEAN_MOTION_DDOT":0}]
